GLOBALSTAR M067         
1 32263U 07048A   26003.76220075 -.00000091  00000+0  44160-4 0  9994
2 32263  51.9707 169.0255 0002052  74.9888 297.7926 12.40683882834388
GLOBALSTAR M070         
1 32264U 07048B   26003.92621606 -.00000035  00000+0  38396-3 0  9999
2 32264  51.9738 236.9664 0000762  72.7217 300.8162 12.62328809839022
GLOBALSTAR M066         
1 32265U 07048C   26003.65713877 -.00000100  00000+0 -45813-4 0  9999
2 32265  51.9562 170.2300 0005816  65.7683  16.0560 12.30384136839971
GLOBALSTAR M068         
1 32266U 07048D   26003.89619471 -.00000003  00000+0  55791-3 0  9997
2 32266  51.9899  50.4207 0001122 196.7357 334.3468 12.62837600842914
GLOBALSTAR M079         
1 37188U 10054A   26003.99708958 -.00000059  00000+0  24863-3 0  9993
2 37188  52.0027 248.4913 0001021  54.6064  49.8968 12.62269700701811
GLOBALSTAR M074         
1 37189U 10054B   26003.92434605 -.00000056  00000+0  26512-3 0  9992
2 37189  52.0005 248.0043 0001065  73.7261 299.5982 12.62264990702410
GLOBALSTAR M076         
1 37190U 10054C   26003.95082081 -.00000066  00000+0  21301-3 0  9996
2 37190  52.0024 248.1139 0001177  67.3172 305.5299 12.62268837702136
GLOBALSTAR M077         
1 37191U 10054D   26003.95778951 -.00000040  00000+0  69788-3 0  9998
2 37191  51.9950 236.4387 0001602  61.5193 312.2736 11.68177057701958
